start=new Date('2022-09-15T00:00:00.000Z').valueOf();
sats=[{"TLE_LINE2":"2 52672  53.2168 103.3380 0002046  54.5408 334.9115 15.08814898 18620","TIME_SYSTEM":"UTC","OBJECT_ID":"2022-053S","SEMIMAJOR_AXIS":"6917.957","CENTER_NAME":"EARTH","APOAPSIS":"541.238","PERIOD":"95.439","MEAN_MOTION":"15.08814898","MEAN_ANOMALY":"334.9115","LAUNCH_DATE":"2022-05-18","NORAD_CAT_ID":"52672","OBJECT_TYPE":"PAYLOAD","MEAN_MOTION_DDOT":"0.0000000000000","BSTAR":"0.00108570000000","MEAN_MOTION_DOT":"0.00017021","GP_ID":"212587029","PERIAPSIS":"538.407","SITE":"AFETR","TLE_LINE1":"1 52672U 22053S   22257.91667824  .00017021  00000-0  10857-2 0  9999","ECCENTRICITY":"0.00020460","INCLINATION":"53.2168","COUNTRY_CODE":"US","EPHEMERIS_TYPE":"0","CLASSIFICATION_TYPE":"U","FILE":"3574113","MEAN_ELEMENT_THEORY":"SGP4","EPOCH":"2022-09-14T22:00:00.999936","REF_FRAME":"TEME","DECAY_DATE":null,"RCS_SIZE":"LARGE","REV_AT_EPOCH":"1862","ARG_OF_PERICENTER":"54.5408","RA_OF_ASC_NODE":"103.3380","ELEMENT_SET_NO":"999","OBJECT_NAME":"STARLINK-4073"},{"EPHEMERIS_TYPE":"0","COUNTRY_CODE":"US","CLASSIFICATION_TYPE":"U","EPOCH":"2022-09-14T22:00:00.999936","MEAN_ELEMENT_THEORY":"SGP4","FILE":"3574287","RCS_SIZE":"LARGE","REF_FRAME":"TEME","DECAY_DATE":null,"REV_AT_EPOCH":"130","ARG_OF_PERICENTER":"54.2148","RA_OF_ASC_NODE":"103.3220","ELEMENT_SET_NO":"999","OBJECT_NAME":"STARLINK-3976","MEAN_MOTION_DDOT":"0.0000000000000","MEAN_MOTION_DOT":"0.00016000","BSTAR":"0.00102170000000","GP_ID":"212615093","PERIAPSIS":"538.577","TLE_LINE1":"1 52673U 22053T   22257.91667824  .00016000  00000-0  10217-2 0  9996","SITE":"AFETR","ECCENTRICITY":"0.00017840","INCLINATION":"53.2161","CENTER_NAME":"EARTH","APOAPSIS":"541.045","MEAN_MOTION":"15.08818632","PERIOD":"95.439","MEAN_ANOMALY":"75.2613","NORAD_CAT_ID":"52673","LAUNCH_DATE":"2022-05-18","OBJECT_TYPE":"PAYLOAD","TIME_SYSTEM":"UTC","TLE_LINE2":"2 52673  53.2161 103.3220 0001784  54.2148  75.2613 15.08818632  1308","SEMIMAJOR_AXIS":"6917.946","OBJECT_ID":"2022-053T"},{"INCLINATION":"53.2159","TLE_LINE1":"1 52674U 22053U   22257.91667824  .00015461  00000-0  98739-3 0  9993","SITE":"AFETR","ECCENTRICITY":"0.00019410","MEAN_MOTION_DOT":"0.00015461","BSTAR":"0.00098739000000","GP_ID":"212615209","PERIAPSIS":"538.407","MEAN_MOTION_DDOT":"0.0000000000000","ELEMENT_SET_NO":"999","OBJECT_NAME":"STARLINK-3936","ARG_OF_PERICENTER":"53.0320","RA_OF_ASC_NODE":"103.3406","REV_AT_EPOCH":"130","EPOCH":"2022-09-14T22:00:00.999936","FILE":"3574287","MEAN_ELEMENT_THEORY":"SGP4","RCS_SIZE":"LARGE","REF_FRAME":"TEME","DECAY_DATE":null,"EPHEMERIS_TYPE":"0","COUNTRY_CODE":"US","CLASSIFICATION_TYPE":"U","SEMIMAJOR_AXIS":"6917.884","OBJECT_ID":"2022-053U","TIME_SYSTEM":"UTC","TLE_LINE2":"2 52674  53.2159 103.3406 0001941  53.0320 356.4158 15.08838680  1309","NORAD_CAT_ID":"52674","LAUNCH_DATE":"2022-05-18","OBJECT_TYPE":"PAYLOAD","MEAN_ANOMALY":"356.4158","APOAPSIS":"541.092","CENTER_NAME":"EARTH","MEAN_MOTION":"15.08838680","PERIOD":"95.438"},{"OBJECT_ID":"2022-053V","SEMIMAJOR_AXIS":"6917.940","TLE_LINE2":"2 52675  53.2146  93.3293 0001734  49.0095  95.4259 15.08820420 18754","TIME_SYSTEM":"UTC","OBJECT_TYPE":"PAYLOAD","LAUNCH_DATE":"2022-05-18","NORAD_CAT_ID":"52675","MEAN_ANOMALY":"95.4259","PERIOD":"95.439","MEAN_MOTION":"15.08820420","CENTER_NAME":"EARTH","APOAPSIS":"541.005","INCLINATION":"53.2146","ECCENTRICITY":"0.00017340","SITE":"AFETR","TLE_LINE1":"1 52675U 22053V   22257.91667824  .00030154  00000-0  19056-2 0  9994","PERIAPSIS":"538.606","GP_ID":"212587037","BSTAR":"0.00190560000000","MEAN_MOTION_DOT":"0.00030154","MEAN_MOTION_DDOT":"0.0000000000000","OBJECT_NAME":"STARLINK-3934","ELEMENT_SET_NO":"999","RA_OF_ASC_NODE":"93.3293","ARG_OF_PERICENTER":"49.0095","REV_AT_EPOCH":"1875","REF_FRAME":"TEME","DECAY_DATE":null,"RCS_SIZE":"LARGE","MEAN_ELEMENT_THEORY":"SGP4","FILE":"3574125","EPOCH":"2022-09-14T22:00:00.999936","CLASSIFICATION_TYPE":"U","EPHEMERIS_TYPE":"0","COUNTRY_CODE":"US"},{"ECCENTRICITY":"0.00016980","SITE":"AFETR","TLE_LINE1":"1 52676U 22053W   22257.91667824  .00015990  00000-0  10210-2 0  9999","INCLINATION":"53.2170","MEAN_MOTION_DDOT":"0.0000000000000","PERIAPSIS":"538.627","GP_ID":"212586673","BSTAR":"0.00102100000000","MEAN_MOTION_DOT":"0.00015990","ARG_OF_PERICENTER":"54.8420","RA_OF_ASC_NODE":"103.3286","REV_AT_EPOCH":"1862","OBJECT_NAME":"STARLINK-4006","ELEMENT_SET_NO":"999","CLASSIFICATION_TYPE":"U","EPHEMERIS_TYPE":"0","COUNTRY_CODE":"US","REF_FRAME":"TEME","DECAY_DATE":null,"RCS_SIZE":"LARGE","MEAN_ELEMENT_THEORY":"SGP4","FILE":"3574114","EPOCH":"2022-09-14T22:00:00.999936","TIME_SYSTEM":"UTC","TLE_LINE2":"2 52676  53.2170 103.3286 0001698  54.8420  54.6016 15.08821482 18624","SEMIMAJOR_AXIS":"6917.937","OBJECT_ID":"2022-053W","MEAN_ANOMALY":"54.6016","OBJECT_TYPE":"PAYLOAD","LAUNCH_DATE":"2022-05-18","NORAD_CAT_ID":"52676","PERIOD":"95.439","MEAN_MOTION":"15.08821482","CENTER_NAME":"EARTH","APOAPSIS":"540.977"},{"TIME_SYSTEM":"UTC","TLE_LINE2":"2 52677  53.2149  93.3286 0001667  51.8625 132.5945 15.08842683 18756","SEMIMAJOR_AXIS":"6917.872","OBJECT_ID":"2022-053X","CENTER_NAME":"EARTH","APOAPSIS":"540.890","MEAN_MOTION":"15.08842683","PERIOD":"95.437","MEAN_ANOMALY":"132.5945","NORAD_CAT_ID":"52677","LAUNCH_DATE":"2022-05-18","OBJECT_TYPE":"PAYLOAD","MEAN_MOTION_DDOT":"0.0000000000000","MEAN_MOTION_DOT":"-0.00010767","BSTAR":"-0.00065932000000","GP_ID":"212587045","PERIAPSIS":"538.584","TLE_LINE1":"1 52677U 22053X   22257.91667824 -.00010767  00000-0 -65932-3 0  9991","SITE":"AFETR","ECCENTRICITY":"0.00016670","INCLINATION":"53.2149","EPHEMERIS_TYPE":"0","COUNTRY_CODE":"US","CLASSIFICATION_TYPE":"U","EPOCH":"2022-09-14T22:00:00.999936","FILE":"3574114","MEAN_ELEMENT_THEORY":"SGP4","RCS_SIZE":"MEDIUM","DECAY_DATE":null,"REF_FRAME":"TEME","RA_OF_ASC_NODE":"93.3286","ARG_OF_PERICENTER":"51.8625","REV_AT_EPOCH":"1875","ELEMENT_SET_NO":"999","OBJECT_NAME":"STARLINK-4028"},{"CENTER_NAME":"EARTH","APOAPSIS":"541.200","MEAN_MOTION":"15.08837460","PERIOD":"95.438","NORAD_CAT_ID":"52678","LAUNCH_DATE":"2022-05-18","OBJECT_TYPE":"PAYLOAD","MEAN_ANOMALY":"89.1735","SEMIMAJOR_AXIS":"6917.888","OBJECT_ID":"2022-053Y","TLE_LINE2":"2 52678  53.2174  93.3259 0002092  50.0636  89.1735 15.08837460  1305","TIME_SYSTEM":"UTC","EPOCH":"2022-09-14T22:00:00.999936","MEAN_ELEMENT_THEORY":"SGP4","FILE":"3574287","RCS_SIZE":"LARGE","REF_FRAME":"TEME","DECAY_DATE":null,"COUNTRY_CODE":"US","EPHEMERIS_TYPE":"0","CLASSIFICATION_TYPE":"U","ELEMENT_SET_NO":"999","OBJECT_NAME":"STARLINK-4074","RA_OF_ASC_NODE":"93.3259","ARG_OF_PERICENTER":"50.0636","REV_AT_EPOCH":"130","MEAN_MOTION_DOT":"-0.00001718","BSTAR":"-0.00008988000000","GP_ID":"212614795","PERIAPSIS":"538.306","MEAN_MOTION_DDOT":"0.0000000000000","INCLINATION":"53.2174","TLE_LINE1":"1 52678U 22053Y   22257.91667824 -.00001718  00000-0 -89880-4 0  9997","SITE":"AFETR","ECCENTRICITY":"0.00020920"},{"ECCENTRICITY":"0.00015580","SITE":"AFETR","TLE_LINE1":"1 52679U 22053Z   22257.91667824  .00032582  00000-0  20568-2 0  9995","INCLINATION":"53.2153","MEAN_MOTION_DDOT":"0.0000000000000","GP_ID":"212587050","PERIAPSIS":"538.723","BSTAR":"0.00205680000000","MEAN_MOTION_DOT":"0.00032582","ARG_OF_PERICENTER":"54.9329","RA_OF_ASC_NODE":"93.3284","REV_AT_EPOCH":"1875","OBJECT_NAME":"STARLINK-4031","ELEMENT_SET_NO":"999","CLASSIFICATION_TYPE":"U","EPHEMERIS_TYPE":"0","COUNTRY_CODE":"US","REF_FRAME":"TEME","DECAY_DATE":null,"RCS_SIZE":"LARGE","MEAN_ELEMENT_THEORY":"SGP4","FILE":"3574114","EPOCH":"2022-09-14T22:00:00.999936","TIME_SYSTEM":"UTC","TLE_LINE2":"2 52679  53.2153  93.3284 0001558  54.9329 189.5293 15.08822028 18754","SEMIMAJOR_AXIS":"6917.935","OBJECT_ID":"2022-053Z","MEAN_ANOMALY":"189.5293","OBJECT_TYPE":"PAYLOAD","LAUNCH_DATE":"2022-05-18","NORAD_CAT_ID":"52679","PERIOD":"95.439","MEAN_MOTION":"15.08822028","CENTER_NAME":"EARTH","APOAPSIS":"540.878"},{"OBJECT_ID":"2022-053AA","SEMIMAJOR_AXIS":"6917.944","TIME_SYSTEM":"UTC","TLE_LINE2":"2 52680  53.2145  93.3295 0001742  55.7476 108.7007 15.08819302 18753","PERIOD":"95.439","MEAN_MOTION":"15.08819302","APOAPSIS":"541.014","CENTER_NAME":"EARTH","OBJECT_TYPE":"PAYLOAD","LAUNCH_DATE":"2022-05-18","NORAD_CAT_ID":"52680","MEAN_ANOMALY":"108.7007","PERIAPSIS":"538.604","GP_ID":"212586668","BSTAR":"0.00194430000000","MEAN_MOTION_DOT":"0.00030774","MEAN_MOTION_DDOT":"0.0000000000000","INCLINATION":"53.2145","ECCENTRICITY":"0.00017420","SITE":"AFETR","TLE_LINE1":"1 52680U 22053AA  22257.91667824  .00030774  00000-0  19443-2 0  9998","REF_FRAME":"TEME","DECAY_DATE":null,"RCS_SIZE":"LARGE","FILE":"3574114","MEAN_ELEMENT_THEORY":"SGP4","EPOCH":"2022-09-14T22:00:00.999936","CLASSIFICATION_TYPE":"U","COUNTRY_CODE":"US","EPHEMERIS_TYPE":"0","OBJECT_NAME":"STARLINK-3774","ELEMENT_SET_NO":"999","RA_OF_ASC_NODE":"93.3295","ARG_OF_PERICENTER":"55.7476","REV_AT_EPOCH":"1875"},{"TLE_LINE2":"2 52681  53.2142  93.3239 0001926  44.6204 219.8582 15.08828120 18759","TIME_SYSTEM":"UTC","SEMIMAJOR_AXIS":"6917.917","OBJECT_ID":"2022-053AB","APOAPSIS":"541.114","CENTER_NAME":"EARTH","PERIOD":"95.438","MEAN_MOTION":"15.08828120","MEAN_ANOMALY":"219.8582","LAUNCH_DATE":"2022-05-18","NORAD_CAT_ID":"52681","OBJECT_TYPE":"PAYLOAD","MEAN_MOTION_DDOT":"0.0000000000000","BSTAR":"0.00010615000000","MEAN_MOTION_DOT":"0.00001401","PERIAPSIS":"538.449","GP_ID":"212586683","SITE":"AFETR","TLE_LINE1":"1 52681U 22053AB  22257.91667824  .00001401  00000-0  10615-3 0  9997","ECCENTRICITY":"0.00019260","INCLINATION":"53.2142","EPHEMERIS_TYPE":"0","COUNTRY_CODE":"US","CLASSIFICATION_TYPE":"U","FILE":"3574115","MEAN_ELEMENT_THEORY":"SGP4","EPOCH":"2022-09-14T22:00:00.999936","DECAY_DATE":null,"REF_FRAME":"TEME","RCS_SIZE":"LARGE","REV_AT_EPOCH":"1875","RA_OF_ASC_NODE":"93.3239","ARG_OF_PERICENTER":"44.6204","ELEMENT_SET_NO":"999","OBJECT_NAME":"STARLINK-4068"}];
